CCSDS_OMM_VERS = 2.0
CREATION_DATE  = 
ORIGINATOR     = 

OBJECT_NAME    = UNKNOWN
OBJECT_ID      = 
CENTER_NAME    = EARTH
REF_FRAME      = TEME
TIME_SYSTEM    = UTC
MEAN_ELEMENT_THEORY = SGP/SGP4

EPOCH          = 2026-03-06T09:35:38.016384
MEAN_MOTION    = 13.23147973
ECCENTRICITY   = .01508445
INCLINATION    = 100.3415
RA_OF_ASC_NODE = 127.8689
ARG_OF_PERICENTER = 310.4646
MEAN_ANOMALY   = 48.3401

EPHEMERIS_TYPE = 0
CLASSIFICATION_TYPE = U
NORAD_CAT_ID   = 270073
ELEMENT_SET_NO = 999
REV_AT_EPOCH   = 30272
BSTAR          = .19679922E-2
MEAN_MOTION_DOT = .836E-5
MEAN_MOTION_DDOT = 0

CCSDS_OMM_VERS = 2.0
CREATION_DATE  = 
ORIGINATOR     = 

OBJECT_NAME    = UNKNOWN
OBJECT_ID      = 
CENTER_NAME    = EARTH
REF_FRAME      = TEME
TIME_SYSTEM    = UTC
MEAN_ELEMENT_THEORY = SGP/SGP4

EPOCH          = 2026-03-05T00:08:43.019808
MEAN_MOTION    = 12.86100824
ECCENTRICITY   = .04737755
INCLINATION    = 63.3006
RA_OF_ASC_NODE = 319.2102
ARG_OF_PERICENTER = 16.8470
MEAN_ANOMALY   = 344.7668

EPHEMERIS_TYPE = 0
CLASSIFICATION_TYPE = U
NORAD_CAT_ID   = 270074
ELEMENT_SET_NO = 999
REV_AT_EPOCH   = 29426
BSTAR          = .11690234E-2
MEAN_MOTION_DOT = .394E-5
MEAN_MOTION_DDOT = 0

CCSDS_OMM_VERS = 2.0
CREATION_DATE  = 
ORIGINATOR     = 

OBJECT_NAME    = UNKNOWN
OBJECT_ID      = 
CENTER_NAME    = EARTH
REF_FRAME      = TEME
TIME_SYSTEM    = UTC
MEAN_ELEMENT_THEORY = SGP/SGP4

EPOCH          = 2026-03-06T17:07:05.365056
MEAN_MOTION    = 13.66951788
ECCENTRICITY   = .02666457
INCLINATION    = 98.3469
RA_OF_ASC_NODE = 221.9641
ARG_OF_PERICENTER = 50.2711
MEAN_ANOMALY   = 312.1611

EPHEMERIS_TYPE = 0
CLASSIFICATION_TYPE = U
NORAD_CAT_ID   = 270077
ELEMENT_SET_NO = 999
REV_AT_EPOCH   = 31242
BSTAR          = .1040696E-2
MEAN_MOTION_DOT = .1077E-4
MEAN_MOTION_DDOT = 0

CCSDS_OMM_VERS = 2.0
CREATION_DATE  = 
ORIGINATOR     = 

OBJECT_NAME    = UNKNOWN
OBJECT_ID      = 
CENTER_NAME    = EARTH
REF_FRAME      = TEME
TIME_SYSTEM    = UTC
MEAN_ELEMENT_THEORY = SGP/SGP4

EPOCH          = 2026-03-02T04:59:07.817568
MEAN_MOTION    = 14.35978437
ECCENTRICITY   = .0016542
INCLINATION    = 86.3919
RA_OF_ASC_NODE = 45.3480
ARG_OF_PERICENTER = 335.1778
MEAN_ANOMALY   = 24.8621

EPHEMERIS_TYPE = 0
CLASSIFICATION_TYPE = U
NORAD_CAT_ID   = 270078
ELEMENT_SET_NO = 999
REV_AT_EPOCH   = 32784
BSTAR          = .31392381E-3
MEAN_MOTION_DOT = .932E-5
MEAN_MOTION_DDOT = 0

CCSDS_OMM_VERS = 2.0
CREATION_DATE  = 
ORIGINATOR     = 

OBJECT_NAME    = UNKNOWN
OBJECT_ID      = 
CENTER_NAME    = EARTH
REF_FRAME      = TEME
TIME_SYSTEM    = UTC
MEAN_ELEMENT_THEORY = SGP/SGP4

EPOCH          = 2026-03-07T01:43:28.618464
MEAN_MOTION    = 12.38307433
ECCENTRICITY   = .01630139
INCLINATION    = 56.0456
RA_OF_ASC_NODE = 198.3926
ARG_OF_PERICENTER = 149.6281
MEAN_ANOMALY   = 211.4187

EPHEMERIS_TYPE = 0
CLASSIFICATION_TYPE = U
NORAD_CAT_ID   = 270079
ELEMENT_SET_NO = 999
REV_AT_EPOCH   = 28379
BSTAR          = .30161393E-3
MEAN_MOTION_DOT = -.51E-6
MEAN_MOTION_DDOT = 0

CCSDS_OMM_VERS = 2.0
CREATION_DATE  = 
ORIGINATOR     = 

OBJECT_NAME    = UNKNOWN
OBJECT_ID      = 
CENTER_NAME    = EARTH
REF_FRAME      = TEME
TIME_SYSTEM    = UTC
MEAN_ELEMENT_THEORY = SGP/SGP4

EPOCH          = 2026-03-02T12:43:18.410016
MEAN_MOTION    = 12.96656646
ECCENTRICITY   = .00199812
INCLINATION    = 90.2442
RA_OF_ASC_NODE = 347.7080
ARG_OF_PERICENTER = 17.0175
MEAN_ANOMALY   = 343.1612

EPHEMERIS_TYPE = 0
CLASSIFICATION_TYPE = U
NORAD_CAT_ID   = 270081
ELEMENT_SET_NO = 999
REV_AT_EPOCH   = 29617
BSTAR          = .18122299E-2
MEAN_MOTION_DOT = .528E-5
MEAN_MOTION_DDOT = 0

CCSDS_OMM_VERS = 2.0
CREATION_DATE  = 
ORIGINATOR     = 

OBJECT_NAME    = UNKNOWN
OBJECT_ID      = 
CENTER_NAME    = EARTH
REF_FRAME      = TEME
TIME_SYSTEM    = UTC
MEAN_ELEMENT_THEORY = SGP/SGP4

EPOCH          = 2026-03-05T04:11:37.728672
MEAN_MOTION    = 13.98878638
ECCENTRICITY   = .02208305
INCLINATION    = 74.0095
RA_OF_ASC_NODE = 215.4028
ARG_OF_PERICENTER = 358.7305
MEAN_ANOMALY   = 1.3237

EPHEMERIS_TYPE = 0
CLASSIFICATION_TYPE = U
NORAD_CAT_ID   = 270082
ELEMENT_SET_NO = 999
REV_AT_EPOCH   = 31882
BSTAR          = .79808442E-3
MEAN_MOTION_DOT = .1394E-4
MEAN_MOTION_DDOT = 0

CCSDS_OMM_VERS = 2.0
CREATION_DATE  = 
ORIGINATOR     = 

OBJECT_NAME    = UNKNOWN
OBJECT_ID      = 
CENTER_NAME    = EARTH
REF_FRAME      = TEME
TIME_SYSTEM    = UTC
MEAN_ELEMENT_THEORY = SGP/SGP4

EPOCH          = 2026-02-28T04:48:50.622624
MEAN_MOTION    = 13.79668182
ECCENTRICITY   = .03816557
INCLINATION    = 72.8750
RA_OF_ASC_NODE = 26.0500
ARG_OF_PERICENTER = 110.9370
MEAN_ANOMALY   = 253.3032

EPHEMERIS_TYPE = 0
CLASSIFICATION_TYPE = U
NORAD_CAT_ID   = 270084
ELEMENT_SET_NO = 999
REV_AT_EPOCH   = 31064
BSTAR          = .2771085E-2
MEAN_MOTION_DOT = .4927E-4
MEAN_MOTION_DDOT = 0

CCSDS_OMM_VERS = 2.0
CREATION_DATE  = 
ORIGINATOR     = 

OBJECT_NAME    = UNKNOWN
OBJECT_ID      = 
CENTER_NAME    = EARTH
REF_FRAME      = TEME
TIME_SYSTEM    = UTC
MEAN_ELEMENT_THEORY = SGP/SGP4

EPOCH          = 2026-02-27T22:55:44.536512
MEAN_MOTION    = 12.80874483
ECCENTRICITY   = .06459835
INCLINATION    = 99.2789
RA_OF_ASC_NODE = 316.8026
ARG_OF_PERICENTER = 160.7485
MEAN_ANOMALY   = 201.9281

EPHEMERIS_TYPE = 0
CLASSIFICATION_TYPE = U
NORAD_CAT_ID   = 270085
ELEMENT_SET_NO = 999
REV_AT_EPOCH   = 29133
BSTAR          = .22730727E-2
MEAN_MOTION_DOT = .1241E-4
MEAN_MOTION_DDOT = 0

CCSDS_OMM_VERS = 2.0
CREATION_DATE  = 
ORIGINATOR     = 

OBJECT_NAME    = UNKNOWN
OBJECT_ID      = 
CENTER_NAME    = EARTH
REF_FRAME      = TEME
TIME_SYSTEM    = UTC
MEAN_ELEMENT_THEORY = SGP/SGP4

EPOCH          = 2026-02-21T14:28:00.318144
MEAN_MOTION    = 14.99799597
ECCENTRICITY   = .00167079
INCLINATION    = 86.3532
RA_OF_ASC_NODE = 5.4874
ARG_OF_PERICENTER = 170.8296
MEAN_ANOMALY   = 189.3245

EPHEMERIS_TYPE = 0
CLASSIFICATION_TYPE = U
NORAD_CAT_ID   = 270086
ELEMENT_SET_NO = 999
REV_AT_EPOCH   = 9217
BSTAR          = .35142636E-2
MEAN_MOTION_DOT = .43822E-3
MEAN_MOTION_DDOT = 0

CCSDS_OMM_VERS = 2.0
CREATION_DATE  = 
ORIGINATOR     = 

OBJECT_NAME    = UNKNOWN
OBJECT_ID      = 
CENTER_NAME    = EARTH
REF_FRAME      = TEME
TIME_SYSTEM    = UTC
MEAN_ELEMENT_THEORY = SGP/SGP4

EPOCH          = 2026-03-01T19:20:56.473152
MEAN_MOTION    = 12.25969531
ECCENTRICITY   = .01338208
INCLINATION    = 74.0223
RA_OF_ASC_NODE = 82.3770
ARG_OF_PERICENTER = 44.1313
MEAN_ANOMALY   = 317.0310

EPHEMERIS_TYPE = 0
CLASSIFICATION_TYPE = U
NORAD_CAT_ID   = 270088
ELEMENT_SET_NO = 999
REV_AT_EPOCH   = 28028
BSTAR          = .30357039E-3
MEAN_MOTION_DOT = .2E-6
MEAN_MOTION_DDOT = 0

CCSDS_OMM_VERS = 2.0
CREATION_DATE  = 
ORIGINATOR     = 

OBJECT_NAME    = UNKNOWN
OBJECT_ID      = 
CENTER_NAME    = EARTH
REF_FRAME      = TEME
TIME_SYSTEM    = UTC
MEAN_ELEMENT_THEORY = SGP/SGP4

EPOCH          = 2026-03-02T07:55:12.987552
MEAN_MOTION    = 14.47536807
ECCENTRICITY   = .00110037
INCLINATION    = 97.9761
RA_OF_ASC_NODE = 286.7887
ARG_OF_PERICENTER = 210.2205
MEAN_ANOMALY   = 149.8356

EPHEMERIS_TYPE = 0
CLASSIFICATION_TYPE = U
NORAD_CAT_ID   = 270090
ELEMENT_SET_NO = 999
REV_AT_EPOCH   = 33000
BSTAR          = .17682721E-3
MEAN_MOTION_DOT = .61E-5
MEAN_MOTION_DDOT = 0

CCSDS_OMM_VERS = 2.0
CREATION_DATE  = 
ORIGINATOR     = 

OBJECT_NAME    = UNKNOWN
OBJECT_ID      = 
CENTER_NAME    = EARTH
REF_FRAME      = TEME
TIME_SYSTEM    = UTC
MEAN_ELEMENT_THEORY = SGP/SGP4

EPOCH          = 2026-03-06T06:34:30.461952
MEAN_MOTION    = 12.95520109
ECCENTRICITY   = .00336475
INCLINATION    = 90.2461
RA_OF_ASC_NODE = 7.7843
ARG_OF_PERICENTER = 49.0863
MEAN_ANOMALY   = 311.3162

EPHEMERIS_TYPE = 0
CLASSIFICATION_TYPE = U
NORAD_CAT_ID   = 270091
ELEMENT_SET_NO = 999
REV_AT_EPOCH   = 29668
BSTAR          = .44102009E-3
MEAN_MOTION_DOT = .132E-5
MEAN_MOTION_DDOT = 0

CCSDS_OMM_VERS = 2.0
CREATION_DATE  = 
ORIGINATOR     = 

OBJECT_NAME    = UNKNOWN
OBJECT_ID      = 
CENTER_NAME    = EARTH
REF_FRAME      = TEME
TIME_SYSTEM    = UTC
MEAN_ELEMENT_THEORY = SGP/SGP4

EPOCH          = 2026-02-27T13:18:13.616064
MEAN_MOTION    = 12.92572715
ECCENTRICITY   = .00275659
INCLINATION    = 90.2447
RA_OF_ASC_NODE = 3.5641
ARG_OF_PERICENTER = 205.9732
MEAN_ANOMALY   = 154.0004

EPHEMERIS_TYPE = 0
CLASSIFICATION_TYPE = U
NORAD_CAT_ID   = 270093
ELEMENT_SET_NO = 999
REV_AT_EPOCH   = 29510
BSTAR          = .64512133E-4
MEAN_MOTION_DOT = .25E-6
MEAN_MOTION_DDOT = 0

CCSDS_OMM_VERS = 2.0
CREATION_DATE  = 
ORIGINATOR     = 

OBJECT_NAME    = UNKNOWN
OBJECT_ID      = 
CENTER_NAME    = EARTH
REF_FRAME      = TEME
TIME_SYSTEM    = UTC
MEAN_ELEMENT_THEORY = SGP/SGP4

EPOCH          = 2026-03-02T15:24:42.967872
MEAN_MOTION    = 12.23916221
ECCENTRICITY   = .01193656
INCLINATION    = 102.5939
RA_OF_ASC_NODE = 42.6413
ARG_OF_PERICENTER = 120.0620
MEAN_ANOMALY   = 241.2332

EPHEMERIS_TYPE = 0
CLASSIFICATION_TYPE = U
NORAD_CAT_ID   = 270094
ELEMENT_SET_NO = 999
REV_AT_EPOCH   = 27987
BSTAR          = .40484698E-3
MEAN_MOTION_DOT = 0
MEAN_MOTION_DDOT = 0

CCSDS_OMM_VERS = 2.0
CREATION_DATE  = 
ORIGINATOR     = 

OBJECT_NAME    = UNKNOWN
OBJECT_ID      = 
CENTER_NAME    = EARTH
REF_FRAME      = TEME
TIME_SYSTEM    = UTC
MEAN_ELEMENT_THEORY = SGP/SGP4

EPOCH          = 2026-03-02T03:30:11.812320
MEAN_MOTION    = 12.97308868
ECCENTRICITY   = .0027742
INCLINATION    = 90.2525
RA_OF_ASC_NODE = 9.4657
ARG_OF_PERICENTER = 19.4474
MEAN_ANOMALY   = 340.7698

EPHEMERIS_TYPE = 0
CLASSIFICATION_TYPE = U
NORAD_CAT_ID   = 270095
ELEMENT_SET_NO = 999
REV_AT_EPOCH   = 29636
BSTAR          = .22887973E-2
MEAN_MOTION_DOT = .671E-5
MEAN_MOTION_DDOT = 0

